STARLINK-30834          
1 58151U 23166B   26068.68595207  .00020032  00000+0  68654-3 0  9990
2 58151  53.1599 219.7703 0000703 115.4663 244.6410 15.30204498133171
TRANSPORTER-11 OBJECT A 
1 60468U 24149A   26068.74646182  .00010774  00000+0  36054-3 0  9993
2 60468  97.3780 149.0949 0003110 191.0010 169.1164 15.31141332 86830
